{
  "norad_id": 49133,
  "name": "STARLINK-3077",
  "history": [
    {
      "epoch": "2026-03-28T19:34:32.387232",
      "apogee_km": 574.1999421594373,
      "perigee_km": 569.8837420948985,
      "latitude_deg": 66.99130150187548,
      "longitude_deg": -108.39734751987271,
      "semi_major_axis_km": 6950.178842127168,
      "eccentricity": 0.00031051,
      "inclination_deg": 69.9992,
      "raan_deg": 246.2286,
      "arg_perigee_deg": 269.5277,
      "mean_anomaly_deg": 90.5527,
      "mean_motion_rev_day": 14.98334543
    },
    {
      "epoch": "2026-03-29T03:35:13.120224",
      "apogee_km": 573.9834346372618,
      "perigee_km": 570.1399747535643,
      "latitude_deg": 22.96551832063797,
      "longitude_deg": -76.35208863997832,
      "semi_major_axis_km": 6950.198704695413,
      "eccentricity": 0.0002765,
      "inclination_deg": 69.9997,
      "raan_deg": 245.387,
      "arg_perigee_deg": 271.0433,
      "mean_anomaly_deg": 89.041,
      "mean_motion_rev_day": 14.9832812
    }
  ]
}